NORAD_CAT_ID,OBJECT_NAME,OBJECT_TYPE,EPOCH,MEAN_MOTION,ECCENTRICITY,INCLINATION,RA_OF_ASC_NODE,ARG_OF_PERICENTER,MEAN_ANOMALY,BSTAR,MEAN_MOTION_DOT,MEAN_MOTION_DDOT,TLE_LINE0,TLE_LINE1,TLE_LINE2,SEMIMAJOR_AXIS,PERIOD,APOGEE,PERIGEE,DECAYED
53257.0,STARLINK-4144,PAYLOAD,2023-04-03 17:03:24,15.08862024,0.0001278,53.2173,321.9353,93.7677,266.3461,0.00096843,0.00015167,0.0,0 STARLINK-4144,1 53257U 22086R   23093.71070599  .00015167  00000-0  96843-3 0  9998,2 53257  53.2173 321.9353 0001278  93.7677 266.3461 15.08862024 39206,6917.813,95.436,540.562,538.794,0.0
53257.0,STARLINK-4144,PAYLOAD,2023-04-04 01:00:20,15.08865579,8.44e-05,53.2165,320.4472,93.4396,266.6693,0.0012593,0.00019825,0.0,0 STARLINK-4144,1 53257U 22086R   23094.04190148  .00019825  00000-0  12593-2 0  9992,2 53257  53.2165 320.4472 0000844  93.4396 266.6693 15.08865579 39439,6917.802,95.436,540.251,539.083,0.0
53257.0,STARLINK-4144,PAYLOAD,2023-04-04 21:40:21,15.08840632,8.47e-05,53.2167,316.5827,92.643,267.4659,0.0011537,0.00018121,0.0,0 STARLINK-4144,1 53257U 22086R   23094.90302859  .00018121  00000-0  11537-2 0  9996,2 53257  53.2167 316.5827 0000847  92.6430 267.4659 15.08840632 39562,6917.878,95.438,540.329,539.158,0.0
53257.0,STARLINK-4144,PAYLOAD,2023-04-05 00:51:07,15.08844886,9.14e-05,53.2167,315.9882,75.7583,284.351,0.0012,0.00018864,0.0,0 STARLINK-4144,1 53257U 22086R   23095.03550905  .00018864  00000-0  12000-2 0  9998,2 53257  53.2167 315.9882 0000914  75.7583 284.3510 15.08844886 39404,6917.865,95.437,540.363,539.098,0.0
53257.0,STARLINK-4144,PAYLOAD,2023-04-05 21:31:08,15.08842528,8.46e-05,53.2146,312.1204,83.8405,276.2684,0.00046405,7.106e-05,0.0,0 STARLINK-4144,1 53257U 22086R   23095.89663091  .00007106  00000-0  46405-3 0  9997,2 53257  53.2146 312.1204 0000846  83.8405 276.2684 15.08842528 39532,6917.873,95.437,540.323,539.152,0.0
53257.0,STARLINK-4144,PAYLOAD,2023-04-06 00:41:55,15.08847852,0.0001015,53.2168,311.5249,80.4847,279.6259,0.00050895,7.823e-05,0.0,0 STARLINK-4144,1 53257U 22086R   23096.02910952  .00007823  00000-0  50895-3 0  9998,2 53257  53.2168 311.5249 0001015  80.4847 279.6259 15.08847852 39732,6917.856,95.437,540.424,539.019,0.0
53257.0,STARLINK-4144,PAYLOAD,2023-04-06 16:35:46,15.088394,8.86e-05,53.2152,308.5511,87.657,272.4523,0.00017782,2.543e-05,0.0,0 STARLINK-4144,1 53257U 22086R   23096.69151291  .00002543  00000-0  17782-3 0  9996,2 53257  53.2152 308.5511 0000886  87.6570 272.4523 15.08839400 39656,6917.882,95.438,540.36,539.134,0.0
53257.0,STARLINK-4144,PAYLOAD,2023-04-07 00:32:42,15.08849899,0.0001011,53.2156,307.0643,86.9014,273.2094,0.00045307,6.932e-05,0.0,0 STARLINK-4144,1 53257U 22086R   23097.02271073  .00006932  00000-0  45307-3 0  9995,2 53257  53.2156 307.0643 0001011  86.9014 273.2094 15.08849899 39707,6917.85,95.437,540.415,539.016,0.0
53257.0,STARLINK-4144,PAYLOAD,2023-04-07 16:26:33,15.08839192,0.0001305,53.2158,304.0929,82.3576,277.7565,0.0003613,5.467e-05,0.0,0 STARLINK-4144,1 53257U 22086R   23097.68511406  .00005467  00000-0  36130-3 0  9990,2 53257  53.2158 304.0929 0001305  82.3576 277.7565 15.08839192 39800,6917.883,95.438,540.651,538.845,0.0
53257.0,STARLINK-4144,PAYLOAD,2023-04-08 00:23:29,15.08845001,0.0001124,53.2156,302.6052,84.9984,275.1137,0.00019794,2.864e-05,0.0,0 STARLINK-4144,1 53257U 22086R   23098.01631220  .00002864  00000-0  19794-3 0  9990,2 53257  53.2156 302.6052 0001124  84.9984 275.1137 15.08845001 40039,6917.865,95.437,540.508,538.953,0.0
53257.0,STARLINK-4144,PAYLOAD,2023-04-08 19:28:07,15.08837214,0.0001068,53.2174,299.0388,79.5735,280.5377,6.1507e-05,6.91e-06,0.0,0 STARLINK-4144,1 53257U 22086R   23098.81119799  .00000691  00000-0  61507-4 0  9996,2 53257  53.2174 299.0388 0001068  79.5735 280.5377 15.08837214 39975,6917.889,95.438,540.493,539.015,0.0
53257.0,STARLINK-4144,PAYLOAD,2023-04-09 12:57:22,15.08838049,0.0001223,53.2162,295.767,75.8181,284.2947,0.00014677,2.049e-05,0.0,0 STARLINK-4144,1 53257U 22086R   23099.53984133  .00002049  00000-0  14677-3 0  9992,2 53257  53.2162 295.7670 0001223  75.8181 284.2947 15.08838049 40261,6917.886,95.438,540.597,538.905,0.0
53257.0,STARLINK-4144,PAYLOAD,2023-04-09 19:18:54,15.08844315,0.0001154,53.2166,294.5764,80.8686,279.2436,0.00024472,3.609e-05,0.0,0 STARLINK-4144,1 53257U 22086R   23099.80479969  .00003609  00000-0  24472-3 0  9995,2 53257  53.2166 294.5764 0001154  80.8686 279.2436 15.08844315 40300,6917.867,95.437,540.531,538.934,0.0
53257.0,STARLINK-4144,PAYLOAD,2023-04-10 19:09:41,15.08853742,0.0001233,53.217,290.1158,80.9553,279.1579,0.0003513,5.31e-05,0.0,0 STARLINK-4144,1 53257U 22086R   23100.79839556  .00005310  00000-0  35130-3 0  9992,2 53257  53.2170 290.1158 0001233  80.9553 279.1579 15.08853742 40453,6917.838,95.437,540.556,538.85,0.0
53257.0,STARLINK-4144,PAYLOAD,2023-04-11 12:38:56,15.08844257,0.000112,53.2165,286.8441,80.7612,279.3507,0.00012171,1.65e-05,0.0,0 STARLINK-4144,1 53257U 22086R   23101.52703716  .00001650  00000-0  12171-3 0  9995,2 53257  53.2165 286.8441 0001120  80.7612 279.3507 15.08844257 40569,6917.867,95.437,540.507,538.958,0.0
53257.0,STARLINK-4144,PAYLOAD,2023-04-11 19:00:28,15.08849603,0.0001254,53.2168,285.655,83.4298,276.6837,0.00019617,2.836e-05,0.0,0 STARLINK-4144,1 53257U 22086R   23101.79199425  .00002836  00000-0  19617-3 0  9999,2 53257  53.2168 285.6550 0001254  83.4298 276.6837 15.08849603 40609,6917.851,95.437,540.584,538.849,0.0
53257.0,STARLINK-4144,PAYLOAD,2023-04-12 10:54:19,15.08842209,0.0001241,53.215,282.6818,83.6042,276.5092,1.5474e-05,-4.2e-07,0.0,0 STARLINK-4144,1 53257U 22086R   23102.45439534 -.00000042  00000-0  15474-4 0  9997,2 53257  53.2150 282.6818 0001241  83.6042 276.5092 15.08842209 40707,6917.874,95.437,540.597,538.88,0.0
53257.0,STARLINK-4144,PAYLOAD,2023-04-13 10:45:07,15.08840742,0.0001441,53.2169,278.2201,86.6528,273.4629,0.00019975,2.893e-05,0.0,0 STARLINK-4144,1 53257U 22086R   23103.44799817  .00002893  00000-0  19975-3 0  9994,2 53257  53.2169 278.2201 0001441  86.6528 273.4629 15.08840742 40856,6917.878,95.438,540.74,538.746,0.0
53257.0,STARLINK-4144,PAYLOAD,2023-04-14 04:14:21,15.08836324,9.48e-05,53.2173,274.9509,88.3388,271.7713,3.2466e-05,2.29e-06,0.0,0 STARLINK-4144,1 53257U 22086R   23104.17663896  .00000229  00000-0  32466-4 0  9994,2 53257  53.2173 274.9509 0000948  88.3388 271.7713 15.08836324 40787,6917.892,95.438,540.412,539.101,0.0
53257.0,STARLINK-4144,PAYLOAD,2023-04-14 12:11:17,15.08838723,0.0001091,53.2164,273.4626,83.2958,276.8158,0.00013206,1.814e-05,0.0,0 STARLINK-4144,1 53257U 22086R   23104.50784038  .00001814  00000-0  13206-3 0  9994,2 53257  53.2164 273.4626 0001091  83.2958 276.8158 15.08838723 41019,6917.884,95.438,540.504,538.995,0.0
53257.0,STARLINK-4144,PAYLOAD,2023-04-14 20:08:12,15.08851891,0.0001056,53.2162,271.975,84.5072,275.6041,0.00057795,8.925e-05,0.0,0 STARLINK-4144,1 53257U 22086R   23104.83903700  .00008925  00000-0  57795-3 0  9990,2 53257  53.2162 271.9750 0001056  84.5072 275.6041 15.08851891 40883,6917.844,95.437,540.44,538.979,0.0
53257.0,STARLINK-4144,PAYLOAD,2023-04-15 12:02:04,15.08839054,9.77e-05,53.2185,269.004,85.8787,274.2317,0.0001773,2.535e-05,0.0,0 STARLINK-4144,1 53257U 22086R   23105.50144143  .00002535  00000-0  17730-3 0  9999,2 53257  53.2185 269.0040 0000977  85.8787 274.2317 15.08839054 40985,6917.883,95.438,540.424,539.072,0.0
53257.0,STARLINK-4144,PAYLOAD,2023-04-15 19:59:00,15.0885138,0.000108,53.2154,267.5149,88.0772,272.0344,0.00077892,0.00012134,0.0,0 STARLINK-4144,1 53257U 22086R   23105.83263950  .00012134  00000-0  77892-3 0  9994,2 53257  53.2154 267.5149 0001080  88.0772 272.0344 15.08851380 41218,6917.846,95.437,540.458,538.963,0.0
53257.0,STARLINK-4144,PAYLOAD,2023-04-16 10:17:28,15.08845461,0.0001241,53.215,264.8389,94.0987,266.0147,0.00066341,0.00010288,0.0,0 STARLINK-4144,1 53257U 22086R   23106.42880083  .00010288  00000-0  66341-3 0  9997,2 53257  53.2150 264.8389 0001241  94.0987 266.0147 15.08845461 41301,6917.864,95.437,540.587,538.87,0.0
53257.0,STARLINK-4144,PAYLOAD,2023-04-16 18:14:23,15.08857346,0.0001063,53.2155,263.3518,102.1873,257.9239,0.001019,0.00015974,0.0,0 STARLINK-4144,1 53257U 22086R   23106.75999776  .00015974  00000-0  10190-2 0  9990,2 53257  53.2155 263.3518 0001063 102.1873 257.9239 15.08857346 41352,6917.827,95.436,540.428,538.957,0.0
53257.0,STARLINK-4144,PAYLOAD,2023-04-17 03:46:42,15.0885264,0.0001097,53.2161,261.5677,85.2881,274.8236,0.0006936,0.00010772,0.0,0 STARLINK-4144,1 53257U 22086R   23107.15743801  .00010772  00000-0  69360-3 0  9996,2 53257  53.2161 261.5677 0001097  85.2881 274.8236 15.08852640 41236,6917.842,95.437,540.466,538.948,0.0
53257.0,STARLINK-4144,PAYLOAD,2023-04-17 08:32:52,15.08841874,0.0001196,53.2168,260.6749,100.844,259.2687,0.00030373,4.55e-05,0.0,0 STARLINK-4144,1 53257U 22086R   23107.35615967  .00004550  00000-0  30373-3 0  9998,2 53257  53.2168 260.6749 0001196 100.8440 259.2687 15.08841874 41265,6917.875,95.437,540.567,538.912,0.0
53257.0,STARLINK-4144,PAYLOAD,2023-04-17 18:05:10,15.08847775,0.0001352,53.2157,258.8904,92.7337,267.381,0.00035909,5.433e-05,0.0,0 STARLINK-4144,1 53257U 22086R   23107.75359885  .00005433  00000-0  35909-3 0  9997,2 53257  53.2157 258.8904 0001352  92.7337 267.3810 15.08847775 41504,6917.857,95.437,540.657,538.786,0.0
53257.0,STARLINK-4144,PAYLOAD,2023-04-18 09:59:02,15.08842791,0.0001544,53.2157,255.9177,90.0294,270.0875,0.00019328,2.79e-05,0.0,0 STARLINK-4144,1 53257U 22086R   23108.41600241  .00002790  00000-0  19328-3 0  9996,2 53257  53.2157 255.9177 0001544  90.0294 270.0875 15.08842791 41606,6917.872,95.437,540.805,538.669,0.0
53257.0,STARLINK-4144,PAYLOAD,2023-04-18 16:20:35,15.08842993,0.0001389,53.2155,254.7284,94.117,265.9981,0.00037813,5.736e-05,0.0,0 STARLINK-4144,1 53257U 22086R   23108.68096213  .00005736  00000-0  37813-3 0  9995,2 53257  53.2155 254.7284 0001389  94.1170 265.9981 15.08842993 41464,6917.871,95.437,540.697,538.775,0.0
